{
    "type": "FeatureCollection",
    "name": "madinawaterfact.(C,D)_madinawaterfact.(A,B)_madinahwaterfact.(E)_madinahwaterfact.(F)",
    "crs": {
        "type": "name",
        "properties": {
            "name": "urn:ogc:def:crs:OGC:1.3:CRS84"
        }
    },
    "features": [
        {
            "type": "Feature",
            "properties": {
                "OBJECTID": 1,
                "Planet_Id": "1",
                "Description": "Main_Building",
                "Height": 6,
                "Color": " 200 200 200",
                "Height2": 6,
                "AreaSize": 1865.76,
                "Volume": 11194.56,
                "MBID": "1",
                "Created_By": "OptimalPV",
                "Building": "madinawaterfact.(C,D)"
            },
            "geometry": {
                "type": "MultiPolygon",
                "coordinates": [
                    [
                        [
                            [
                                39.538847329053,
                                24.312782962776,
                                562
                            ],
                            [
                                39.539463006426,
                                24.312772189619,
                                562
                            ],
                            [
                                39.539463006426,
                                24.312772189619,
                                568
                            ],
                            [
                                39.538847329053,
                                24.312782962776,
                                568
                            ],
                            [
                                39.538847329053,
                                24.312782962776,
                                562
                            ]
                        ]
                    ],
                    [
                        [
                            [
                                39.538852993574,
                                24.313051810381,
                                562
                            ],
                            [
                                39.539468670947,
                                24.313041037224,
                                562
                            ],
                            [
                                39.539468670947,
                                24.313041037224,
                                568
                            ],
                            [
                                39.538852993574,
                                24.313051810381,
                                568
                            ],
                            [
                                39.538852993574,
                                24.313051810381,
                                562
                            ]
                        ]
                    ],
                    [
                        [
                            [
                                39.538847329053,
                                24.312782962776,
                                562
                            ],
                            [
                                39.538852993574,
                                24.313051810381,
                                562
                            ],
                            [
                                39.538852993574,
                                24.313051810381,
                                568
                            ],
                            [
                                39.538847329053,
                                24.312782962776,
                                568
                            ],
                            [
                                39.538847329053,
                                24.312782962776,
                                562
                            ]
                        ]
                    ],
                    [
                        [
                            [
                                39.539463006426,
                                24.312772189619,
                                562
                            ],
                            [
                                39.539468670947,
                                24.313041037224,
                                562
                            ],
                            [
                                39.539468670947,
                                24.313041037224,
                                568
                            ],
                            [
                                39.539463006426,
                                24.312772189619,
                                568
                            ],
                            [
                                39.539463006426,
                                24.312772189619,
                                562
                            ]
                        ]
                    ],
                    [
                        [
                            [
                                39.538847329053,
                                24.312782962776,
                                562
                            ],
                            [
                                39.539463006426,
                                24.312772189619,
                                562
                            ],
                            [
                                39.539468670947,
                                24.313041037224,
                                562
                            ],
                            [
                                39.538852993574,
                                24.313051810381,
                                562
                            ],
                            [
                                39.538847329053,
                                24.312782962776,
                                562
                            ]
                        ]
                    ]
                ]
            }
        },
        {
            "type": "Feature",
            "properties": {
                "OBJECTID": 2,
                "Planet_Id": "2",
                "Description": "Roof_gabled",
                "Height": 6,
                "Color": " 160 140 100",
                "Height2": 7.67,
                "AreaSize": 1865.76,
                "Volume": 1562.01,
                "MBID": "2",
                "Created_By": "OptimalPV",
                "Building": "madinawaterfact.(C,D)"
            },
            "geometry": {
                "type": "MultiPolygon",
                "coordinates": [
                    [
                        [
                            [
                                39.538850161314,
                                24.312917386579,
                                569.674
                            ],
                            [
                                39.539465838686,
                                24.312906613421,
                                569.674
                            ],
                            [
                                39.539463006426,
                                24.312772189619,
                                568
                            ],
                            [
                                39.538847329053,
                                24.312782962776,
                                568
                            ],
                            [
                                39.538850161314,
                                24.312917386579,
                                569.674
                            ]
                        ]
                    ],
                    [
                        [
                            [
                                39.538850161314,
                                24.312917386579,
                                569.674
                            ],
                            [
                                39.539465838686,
                                24.312906613421,
                                569.674
                            ],
                            [
                                39.539468670947,
                                24.313041037224,
                                568
                            ],
                            [
                                39.538852993574,
                                24.313051810381,
                                568
                            ],
                            [
                                39.538850161314,
                                24.312917386579,
                                569.674
                            ]
                        ]
                    ],
                    [
                        [
                            [
                                39.538847329053,
                                24.312782962776,
                                568
                            ],
                            [
                                39.538850161314,
                                24.312917386579,
                                569.674
                            ],
                            [
                                39.538852993574,
                                24.313051810381,
                                568
                            ],
                            [
                                39.538847329053,
                                24.312782962776,
                                568
                            ]
                        ]
                    ],
                    [
                        [
                            [
                                39.539463006426,
                                24.312772189619,
                                568
                            ],
                            [
                                39.539465838686,
                                24.312906613421,
                                569.674
                            ],
                            [
                                39.539468670947,
                                24.313041037224,
                                568
                            ],
                            [
                                39.539463006426,
                                24.312772189619,
                                568
                            ]
                        ]
                    ]
                ]
            }
        },
        {
            "type": "Feature",
            "properties": {
                "OBJECTID": 3,
                "Planet_Id": "3",
                "Description": "Parapet",
                "Height": 0.5,
                "Color": " 120 120 120",
                "Height2": 0.5,
                "AreaSize": 92.3,
                "Volume": 0,
                "MBID": "3",
                "Created_By": "OptimalPV",
                "Building": "madinawaterfact.(C,D)"
            },
            "geometry": {
                "type": "MultiPolygon",
                "coordinates": [
                    [
                        [
                            [
                                39.538847329053,
                                24.312782962776,
                                568
                            ],
                            [
                                39.539463006426,
                                24.312772189619,
                                568
                            ],
                            [
                                39.539463006426,
                                24.312772189619,
                                568.5
                            ],
                            [
                                39.538847329053,
                                24.312782962776,
                                568.5
                            ],
                            [
                                39.538847329053,
                                24.312782962776,
                                568
                            ]
                        ]
                    ],
                    [
                        [
                            [
                                39.538852993574,
                                24.313051810381,
                                568
                            ],
                            [
                                39.539468670947,
                                24.313041037224,
                                568
                            ],
                            [
                                39.539468670947,
                                24.313041037224,
                                568.5
                            ],
                            [
                                39.538852993574,
                                24.313051810381,
                                568.5
                            ],
                            [
                                39.538852993574,
                                24.313051810381,
                                568
                            ]
                        ]
                    ],
                    [
                        [
                            [
                                39.538847329053,
                                24.312782962776,
                                568
                            ],
                            [
                                39.538852993574,
                                24.313051810381,
                                568
                            ],
                            [
                                39.538852993574,
                                24.313051810381,
                                568.5
                            ],
                            [
                                39.538847329053,
                                24.312782962776,
                                568.5
                            ],
                            [
                                39.538847329053,
                                24.312782962776,
                                568
                            ]
                        ]
                    ],
                    [
                        [
                            [
                                39.539463006426,
                                24.312772189619,
                                568
                            ],
                            [
                                39.539468670947,
                                24.313041037224,
                                568
                            ],
                            [
                                39.539468670947,
                                24.313041037224,
                                568.5
                            ],
                            [
                                39.539463006426,
                                24.312772189619,
                                568.5
                            ],
                            [
                                39.539463006426,
                                24.312772189619,
                                568
                            ]
                        ]
                    ]
                ]
            }
        },
        {
            "type": "Feature",
            "properties": {
                "OBJECTID": 4,
                "Planet_Id": "4",
                "Description": "Main_Building",
                "Height": 6,
                "Color": " 200 200 200",
                "Height2": 6,
                "AreaSize": 1822.46,
                "Volume": 10934.76,
                "MBID": "4",
                "Created_By": "OptimalPV",
                "Building": "madinawaterfact.(A,B)"
            },
            "geometry": {
                "type": "MultiPolygon",
                "coordinates": [
                    [
                        [
                            [
                                39.538844373205,
                                24.312517642979,
                                562
                            ],
                            [
                                39.539458075955,
                                24.312506904351,
                                562
                            ],
                            [
                                39.539458075955,
                                24.312506904351,
                                568
                            ],
                            [
                                39.538844373205,
                                24.312517642979,
                                568
                            ],
                            [
                                39.538844373205,
                                24.312517642979,
                                562
                            ]
                        ]
                    ],
                    [
                        [
                            [
                                39.538849924045,
                                24.312781095649,
                                562
                            ],
                            [
                                39.539463626795,
                                24.312770357021,
                                562
                            ],
                            [
                                39.539463626795,
                                24.312770357021,
                                568
                            ],
                            [
                                39.538849924045,
                                24.312781095649,
                                568
                            ],
                            [
                                39.538849924045,
                                24.312781095649,
                                562
                            ]
                        ]
                    ],
                    [
                        [
                            [
                                39.538844373205,
                                24.312517642979,
                                562
                            ],
                            [
                                39.538849924045,
                                24.312781095649,
                                562
                            ],
                            [
                                39.538849924045,
                                24.312781095649,
                                568
                            ],
                            [
                                39.538844373205,
                                24.312517642979,
                                568
                            ],
                            [
                                39.538844373205,
                                24.312517642979,
                                562
                            ]
                        ]
                    ],
                    [
                        [
                            [
                                39.539458075955,
                                24.312506904351,
                                562
                            ],
                            [
                                39.539463626795,
                                24.312770357021,
                                562
                            ],
                            [
                                39.539463626795,
                                24.312770357021,
                                568
                            ],
                            [
                                39.539458075955,
                                24.312506904351,
                                568
                            ],
                            [
                                39.539458075955,
                                24.312506904351,
                                562
                            ]
                        ]
                    ],
                    [
                        [
                            [
                                39.538844373205,
                                24.312517642979,
                                562
                            ],
                            [
                                39.539458075955,
                                24.312506904351,
                                562
                            ],
                            [
                                39.539463626795,
                                24.312770357021,
                                562
                            ],
                            [
                                39.538849924045,
                                24.312781095649,
                                562
                            ],
                            [
                                39.538844373205,
                                24.312517642979,
                                562
                            ]
                        ]
                    ]
                ]
            }
        },
        {
            "type": "Feature",
            "properties": {
                "OBJECTID": 5,
                "Planet_Id": "5",
                "Description": "Roof_gabled",
                "Height": 6,
                "Color": " 160 140 100",
                "Height2": 7.64,
                "AreaSize": 1822.46,
                "Volume": 1495.15,
                "MBID": "5",
                "Created_By": "OptimalPV",
                "Building": "madinawaterfact.(A,B)"
            },
            "geometry": {
                "type": "MultiPolygon",
                "coordinates": [
                    [
                        [
                            [
                                39.538847148625,
                                24.312649369314,
                                569.641
                            ],
                            [
                                39.539460851375,
                                24.312638630686,
                                569.641
                            ],
                            [
                                39.539458075955,
                                24.312506904351,
                                568
                            ],
                            [
                                39.538844373205,
                                24.312517642979,
                                568
                            ],
                            [
                                39.538847148625,
                                24.312649369314,
                                569.641
                            ]
                        ]
                    ],
                    [
                        [
                            [
                                39.538847148625,
                                24.312649369314,
                                569.641
                            ],
                            [
                                39.539460851375,
                                24.312638630686,
                                569.641
                            ],
                            [
                                39.539463626795,
                                24.312770357021,
                                568
                            ],
                            [
                                39.538849924045,
                                24.312781095649,
                                568
                            ],
                            [
                                39.538847148625,
                                24.312649369314,
                                569.641
                            ]
                        ]
                    ],
                    [
                        [
                            [
                                39.538844373205,
                                24.312517642979,
                                568
                            ],
                            [
                                39.538847148625,
                                24.312649369314,
                                569.641
                            ],
                            [
                                39.538849924045,
                                24.312781095649,
                                568
                            ],
                            [
                                39.538844373205,
                                24.312517642979,
                                568
                            ]
                        ]
                    ],
                    [
                        [
                            [
                                39.539458075955,
                                24.312506904351,
                                568
                            ],
                            [
                                39.539460851375,
                                24.312638630686,
                                569.641
                            ],
                            [
                                39.539463626795,
                                24.312770357021,
                                568
                            ],
                            [
                                39.539458075955,
                                24.312506904351,
                                568
                            ]
                        ]
                    ]
                ]
            }
        },
        {
            "type": "Feature",
            "properties": {
                "OBJECTID": 6,
                "Planet_Id": "6",
                "Description": "Parapet",
                "Height": 0.5,
                "Color": " 120 120 120",
                "Height2": 0.5,
                "AreaSize": 91.5,
                "Volume": 0,
                "MBID": "6",
                "Created_By": "OptimalPV",
                "Building": "madinawaterfact.(A,B)"
            },
            "geometry": {
                "type": "MultiPolygon",
                "coordinates": [
                    [
                        [
                            [
                                39.538844373205,
                                24.312517642979,
                                568
                            ],
                            [
                                39.539458075955,
                                24.312506904351,
                                568
                            ],
                            [
                                39.539458075955,
                                24.312506904351,
                                568.5
                            ],
                            [
                                39.538844373205,
                                24.312517642979,
                                568.5
                            ],
                            [
                                39.538844373205,
                                24.312517642979,
                                568
                            ]
                        ]
                    ],
                    [
                        [
                            [
                                39.538849924045,
                                24.312781095649,
                                568
                            ],
                            [
                                39.539463626795,
                                24.312770357021,
                                568
                            ],
                            [
                                39.539463626795,
                                24.312770357021,
                                568.5
                            ],
                            [
                                39.538849924045,
                                24.312781095649,
                                568.5
                            ],
                            [
                                39.538849924045,
                                24.312781095649,
                                568
                            ]
                        ]
                    ],
                    [
                        [
                            [
                                39.538844373205,
                                24.312517642979,
                                568
                            ],
                            [
                                39.538849924045,
                                24.312781095649,
                                568
                            ],
                            [
                                39.538849924045,
                                24.312781095649,
                                568.5
                            ],
                            [
                                39.538844373205,
                                24.312517642979,
                                568.5
                            ],
                            [
                                39.538844373205,
                                24.312517642979,
                                568
                            ]
                        ]
                    ],
                    [
                        [
                            [
                                39.539458075955,
                                24.312506904351,
                                568
                            ],
                            [
                                39.539463626795,
                                24.312770357021,
                                568
                            ],
                            [
                                39.539463626795,
                                24.312770357021,
                                568.5
                            ],
                            [
                                39.539458075955,
                                24.312506904351,
                                568.5
                            ],
                            [
                                39.539458075955,
                                24.312506904351,
                                568
                            ]
                        ]
                    ]
                ]
            }
        },
        {
            "type": "Feature",
            "properties": {
                "OBJECTID": 7,
                "Planet_Id": "7",
                "Description": "Main_Building",
                "Height": 6,
                "Color": " 200 200 200",
                "Height2": 6,
                "AreaSize": 260.4,
                "Volume": 1562.4,
                "MBID": "7",
                "Created_By": "OptimalPV",
                "Building": "madinahwaterfact.(E)"
            },
            "geometry": {
                "type": "MultiPolygon",
                "coordinates": [
                    [
                        [
                            [
                                39.538999452338,
                                24.313189005217,
                                562
                            ],
                            [
                                39.538996782798,
                                24.313049631598,
                                562
                            ],
                            [
                                39.538996782798,
                                24.313049631598,
                                568
                            ],
                            [
                                39.538999452338,
                                24.313189005217,
                                568
                            ],
                            [
                                39.538999452338,
                                24.313189005217,
                                562
                            ]
                        ]
                    ],
                    [
                        [
                            [
                                39.539165217202,
                                24.313186368402,
                                562
                            ],
                            [
                                39.539162547662,
                                24.313046994783,
                                562
                            ],
                            [
                                39.539162547662,
                                24.313046994783,
                                568
                            ],
                            [
                                39.539165217202,
                                24.313186368402,
                                568
                            ],
                            [
                                39.539165217202,
                                24.313186368402,
                                562
                            ]
                        ]
                    ],
                    [
                        [
                            [
                                39.538999452338,
                                24.313189005217,
                                562
                            ],
                            [
                                39.539165217202,
                                24.313186368402,
                                562
                            ],
                            [
                                39.539165217202,
                                24.313186368402,
                                568
                            ],
                            [
                                39.538999452338,
                                24.313189005217,
                                568
                            ],
                            [
                                39.538999452338,
                                24.313189005217,
                                562
                            ]
                        ]
                    ],
                    [
                        [
                            [
                                39.538996782798,
                                24.313049631598,
                                562
                            ],
                            [
                                39.539162547662,
                                24.313046994783,
                                562
                            ],
                            [
                                39.539162547662,
                                24.313046994783,
                                568
                            ],
                            [
                                39.538996782798,
                                24.313049631598,
                                568
                            ],
                            [
                                39.538996782798,
                                24.313049631598,
                                562
                            ]
                        ]
                    ],
                    [
                        [
                            [
                                39.538999452338,
                                24.313189005217,
                                562
                            ],
                            [
                                39.538996782798,
                                24.313049631598,
                                562
                            ],
                            [
                                39.539162547662,
                                24.313046994783,
                                562
                            ],
                            [
                                39.539165217202,
                                24.313186368402,
                                562
                            ],
                            [
                                39.538999452338,
                                24.313189005217,
                                562
                            ]
                        ]
                    ]
                ]
            }
        },
        {
            "type": "Feature",
            "properties": {
                "OBJECTID": 8,
                "Planet_Id": "8",
                "Description": "Roof_flat",
                "Height": 6,
                "Color": " 160 140 100",
                "Height2": 6.84,
                "AreaSize": 260.4,
                "Volume": 109.37,
                "MBID": "8",
                "Created_By": "OptimalPV",
                "Building": "madinahwaterfact.(E)"
            },
            "geometry": {
                "type": "MultiPolygon",
                "coordinates": [
                    [
                        [
                            [
                                39.538999452338,
                                24.313189005217,
                                568
                            ],
                            [
                                39.538996782798,
                                24.313049631598,
                                568
                            ],
                            [
                                39.539162547662,
                                24.313046994783,
                                568
                            ],
                            [
                                39.539165217202,
                                24.313186368402,
                                568
                            ],
                            [
                                39.538999452338,
                                24.313189005217,
                                568
                            ]
                        ]
                    ]
                ]
            }
        },
        {
            "type": "Feature",
            "properties": {
                "OBJECTID": 9,
                "Planet_Id": "9",
                "Description": "Parapet",
                "Height": 0.5,
                "Color": " 120 120 120",
                "Height2": 0.5,
                "AreaSize": 32.3,
                "Volume": 0,
                "MBID": "9",
                "Created_By": "OptimalPV",
                "Building": "madinahwaterfact.(E)"
            },
            "geometry": {
                "type": "MultiPolygon",
                "coordinates": [
                    [
                        [
                            [
                                39.538999452338,
                                24.313189005217,
                                568
                            ],
                            [
                                39.538996782798,
                                24.313049631598,
                                568
                            ],
                            [
                                39.538996782798,
                                24.313049631598,
                                568.5
                            ],
                            [
                                39.538999452338,
                                24.313189005217,
                                568.5
                            ],
                            [
                                39.538999452338,
                                24.313189005217,
                                568
                            ]
                        ]
                    ],
                    [
                        [
                            [
                                39.539165217202,
                                24.313186368402,
                                568
                            ],
                            [
                                39.539162547662,
                                24.313046994783,
                                568
                            ],
                            [
                                39.539162547662,
                                24.313046994783,
                                568.5
                            ],
                            [
                                39.539165217202,
                                24.313186368402,
                                568.5
                            ],
                            [
                                39.539165217202,
                                24.313186368402,
                                568
                            ]
                        ]
                    ],
                    [
                        [
                            [
                                39.538999452338,
                                24.313189005217,
                                568
                            ],
                            [
                                39.539165217202,
                                24.313186368402,
                                568
                            ],
                            [
                                39.539165217202,
                                24.313186368402,
                                568.5
                            ],
                            [
                                39.538999452338,
                                24.313189005217,
                                568.5
                            ],
                            [
                                39.538999452338,
                                24.313189005217,
                                568
                            ]
                        ]
                    ],
                    [
                        [
                            [
                                39.538996782798,
                                24.313049631598,
                                568
                            ],
                            [
                                39.539162547662,
                                24.313046994783,
                                568
                            ],
                            [
                                39.539162547662,
                                24.313046994783,
                                568.5
                            ],
                            [
                                39.538996782798,
                                24.313049631598,
                                568.5
                            ],
                            [
                                39.538996782798,
                                24.313049631598,
                                568
                            ]
                        ]
                    ]
                ]
            }
        },
        {
            "type": "Feature",
            "properties": {
                "OBJECTID": 10,
                "Planet_Id": "10",
                "Description": "Main_Building",
                "Height": 6,
                "Color": " 200 200 200",
                "Height2": 6,
                "AreaSize": 273,
                "Volume": 1638,
                "MBID": "10",
                "Created_By": "OptimalPV",
                "Building": "madinahwaterfact.(F)"
            },
            "geometry": {
                "type": "MultiPolygon",
                "coordinates": [
                    [
                        [
                            [
                                39.539166007516,
                                24.313186509743,
                                562
                            ],
                            [
                                39.539163320754,
                                24.31304623694,
                                562
                            ],
                            [
                                39.539163320754,
                                24.31304623694,
                                568
                            ],
                            [
                                39.539166007516,
                                24.313186509743,
                                568
                            ],
                            [
                                39.539166007516,
                                24.313186509743,
                                562
                            ]
                        ]
                    ],
                    [
                        [
                            [
                                39.539338679246,
                                24.31318376306,
                                562
                            ],
                            [
                                39.539335992484,
                                24.313043490257,
                                562
                            ],
                            [
                                39.539335992484,
                                24.313043490257,
                                568
                            ],
                            [
                                39.539338679246,
                                24.31318376306,
                                568
                            ],
                            [
                                39.539338679246,
                                24.31318376306,
                                562
                            ]
                        ]
                    ],
                    [
                        [
                            [
                                39.539166007516,
                                24.313186509743,
                                562
                            ],
                            [
                                39.539338679246,
                                24.31318376306,
                                562
                            ],
                            [
                                39.539338679246,
                                24.31318376306,
                                568
                            ],
                            [
                                39.539166007516,
                                24.313186509743,
                                568
                            ],
                            [
                                39.539166007516,
                                24.313186509743,
                                562
                            ]
                        ]
                    ],
                    [
                        [
                            [
                                39.539163320754,
                                24.31304623694,
                                562
                            ],
                            [
                                39.539335992484,
                                24.313043490257,
                                562
                            ],
                            [
                                39.539335992484,
                                24.313043490257,
                                568
                            ],
                            [
                                39.539163320754,
                                24.31304623694,
                                568
                            ],
                            [
                                39.539163320754,
                                24.31304623694,
                                562
                            ]
                        ]
                    ],
                    [
                        [
                            [
                                39.539166007516,
                                24.313186509743,
                                562
                            ],
                            [
                                39.539163320754,
                                24.31304623694,
                                562
                            ],
                            [
                                39.539335992484,
                                24.313043490257,
                                562
                            ],
                            [
                                39.539338679246,
                                24.31318376306,
                                562
                            ],
                            [
                                39.539166007516,
                                24.313186509743,
                                562
                            ]
                        ]
                    ]
                ]
            }
        },
        {
            "type": "Feature",
            "properties": {
                "OBJECTID": 11,
                "Planet_Id": "11",
                "Description": "Roof_flat",
                "Height": 6,
                "Color": " 160 140 100",
                "Height2": 6.88,
                "AreaSize": 273,
                "Volume": 119.44,
                "MBID": "11",
                "Created_By": "OptimalPV",
                "Building": "madinahwaterfact.(F)"
            },
            "geometry": {
                "type": "MultiPolygon",
                "coordinates": [
                    [
                        [
                            [
                                39.539166007516,
                                24.313186509743,
                                568
                            ],
                            [
                                39.539163320754,
                                24.31304623694,
                                568
                            ],
                            [
                                39.539335992484,
                                24.313043490257,
                                568
                            ],
                            [
                                39.539338679246,
                                24.31318376306,
                                568
                            ],
                            [
                                39.539166007516,
                                24.313186509743,
                                568
                            ]
                        ]
                    ]
                ]
            }
        },
        {
            "type": "Feature",
            "properties": {
                "OBJECTID": 12,
                "Planet_Id": "12",
                "Description": "Parapet",
                "Height": 0.5,
                "Color": " 120 120 120",
                "Height2": 0.5,
                "AreaSize": 33.1,
                "Volume": 0,
                "MBID": "12",
                "Created_By": "OptimalPV",
                "Building": "madinahwaterfact.(F)"
            },
            "geometry": {
                "type": "MultiPolygon",
                "coordinates": [
                    [
                        [
                            [
                                39.539166007516,
                                24.313186509743,
                                568
                            ],
                            [
                                39.539163320754,
                                24.31304623694,
                                568
                            ],
                            [
                                39.539163320754,
                                24.31304623694,
                                568.5
                            ],
                            [
                                39.539166007516,
                                24.313186509743,
                                568.5
                            ],
                            [
                                39.539166007516,
                                24.313186509743,
                                568
                            ]
                        ]
                    ],
                    [
                        [
                            [
                                39.539338679246,
                                24.31318376306,
                                568
                            ],
                            [
                                39.539335992484,
                                24.313043490257,
                                568
                            ],
                            [
                                39.539335992484,
                                24.313043490257,
                                568.5
                            ],
                            [
                                39.539338679246,
                                24.31318376306,
                                568.5
                            ],
                            [
                                39.539338679246,
                                24.31318376306,
                                568
                            ]
                        ]
                    ],
                    [
                        [
                            [
                                39.539166007516,
                                24.313186509743,
                                568
                            ],
                            [
                                39.539338679246,
                                24.31318376306,
                                568
                            ],
                            [
                                39.539338679246,
                                24.31318376306,
                                568.5
                            ],
                            [
                                39.539166007516,
                                24.313186509743,
                                568.5
                            ],
                            [
                                39.539166007516,
                                24.313186509743,
                                568
                            ]
                        ]
                    ],
                    [
                        [
                            [
                                39.539163320754,
                                24.31304623694,
                                568
                            ],
                            [
                                39.539335992484,
                                24.313043490257,
                                568
                            ],
                            [
                                39.539335992484,
                                24.313043490257,
                                568.5
                            ],
                            [
                                39.539163320754,
                                24.31304623694,
                                568.5
                            ],
                            [
                                39.539163320754,
                                24.31304623694,
                                568
                            ]
                        ]
                    ]
                ]
            }
        }
    ]
}